QIANFAN-49              
1 62250U 24232P   25251.59315032  .00000041  00000+0  44499-4 0  9999
2 62250  88.9959  50.8308 0016067 108.3648 251.9253 13.50959315 54994
QIANFAN-50              
1 62251U 24232Q   25251.46975197  .00000045  00000+0  50899-4 0  9995
2 62251  88.9964  50.8462 0017711 110.0811 250.2249 13.50965863 55006
QIANFAN-51              
1 62252U 24232R   25251.52734867  .00000038  00000+0  40228-4 0  9997
2 62252  88.9957  50.8402 0015164 112.8328 247.4427 13.50968353 55009
QIANFAN-52              
1 62253U 24232S   25251.55618443  .00000069  00000+0  87449-4 0  9992
2 62253  88.9954  50.7144 0017256 106.2179 254.0872 13.50970939 55094
QIANFAN-53              
1 62254U 24232T   25251.53558182  .00000039  00000+0  41584-4 0  9991
2 62254  88.9961  50.8139 0016115 107.1004 253.1914 13.50966787 55057
QIANFAN-54              
1 62255U 24232U   25251.57670392  .00000032  00000+0  31380-4 0  9990
2 62255  88.9953  50.4964 0003570 123.9073 236.2418 13.50968796 86567
QIANFAN-55              
1 62785U 25016A   25251.60254880  .00000105  00000+0  14440-3 0  9991
2 62785  88.9787 113.0379 0015468 264.3078  95.6309 13.50963717 34343
QIANFAN-56              
1 62786U 25016B   25251.61917122  .00000101  00000+0  13795-3 0  9996
2 62786  88.9760 112.8986 0014134 267.0607  92.8927 13.50962772 34393
